[{"OBJECT_NAME":"STARLINK-36226","OBJECT_ID":"2025-304T","EPOCH":"2026-03-09T17:12:07.682112","MEAN_MOTION":14.98337076,"ECCENTRICITY":0.00031316,"INCLINATION":70.0021,"RA_OF_ASC_NODE":174.5944,"ARG_OF_PERICENTER":273.3246,"MEAN_ANOMALY":86.7555,"EPHEMERIS_TYPE":0,"CLASSIFICATION_TYPE":"U","NORAD_CAT_ID":67209,"ELEMENT_SET_NO":999,"REV_AT_EPOCH":1388,"BSTAR":0.00030155892,"MEAN_MOTION_DOT":3.508e-5,"MEAN_MOTION_DDOT":0},{"OBJECT_NAME":"EXPLORER 25 (INJUN 4)","OBJECT_ID":"1964-076B","EPOCH":"2026-03-09T19:29:30.153120","MEAN_MOTION":12.67105727,"ECCENTRICITY":0.11195082,"INCLINATION":81.3348,"RA_OF_ASC_NODE":94.9725,"ARG_OF_PERICENTER":133.7127,"MEAN_ANOMALY":236.2405,"EPHEMERIS_TYPE":0,"CLASSIFICATION_TYPE":"U","NORAD_CAT_ID":932,"ELEMENT_SET_NO":999,"REV_AT_EPOCH":80654,"BSTAR":0.00017000785,"MEAN_MOTION_DOT":5.05e-6,"MEAN_MOTION_DDOT":0}]
